CTC1_L_00323001-01
1 10000U 24127YA  26075.70033565  .00000000  00000+0  00000-0 0  9995
2 10000  45.0000   0.0000 0000000   0.0000   0.0000 14.51731151    12
CTC1_L_00323001-02
1 10001U 26713F   26075.70033565  .00000000  00000+0  00000-0 0  9999
2 10001  45.0000   0.0000 0000000   0.0000  90.0000 14.51731151    12
CTC1_L_00323001-03
1 10002U 25923HV  26075.70033565  .00000000  00000+0  00000-0 0  9992
2 10002  45.0000   0.0000 0000000   0.0000 180.0000 14.51731151    13
CTC1_L_00323001-04
1 10003U 25556PR  26075.70033565  .00000000  00000+0  00000-0 0  9995
2 10003  45.0000   0.0000 0000000   0.0000 270.0000 14.51731151    14
CTC1_L_00323002-01
1 10004U 24907AS  26075.70033565  .00000000  00000+0  00000-0 0  9995
2 10004  45.0000  12.0000 0000000   0.0000  12.0000 14.51731151    12
CTC1_L_00323002-02
1 10005U 25866EW  26075.70033565  .00000000  00000+0  00000-0 0  9991
2 10005  45.0000  12.0000 0000000   0.0000 102.0000 14.51731151    13
CTC1_L_00323002-03
1 10006U 25833RK  26075.70033565  .00000000  00000+0  00000-0 0  9996
2 10006  45.0000  12.0000 0000000   0.0000 192.0000 14.51731151    13
CTC1_L_00323002-04
1 10007U 25398WF  26075.70033565  .00000000  00000+0  00000-0 0  9993
2 10007  45.0000  12.0000 0000000   0.0000 282.0000 14.51731151    14
CTC1_L_00323003-01
1 10008U 22654AM  26075.70033565  .00000000  00000+0  00000-0 0  9996
2 10008  45.0000  24.0000 0000000   0.0000  24.0000 14.51731151    12
CTC1_L_00323003-02
1 10009U 25049TL  26075.70033565  .00000000  00000+0  00000-0 0  9998
2 10009  45.0000  24.0000 0000000   0.0000 114.0000 14.51731151    13
CTC1_L_00323003-03
1 10010U 25738YF  26075.70033565  .00000000  00000+0  00000-0 0  9995
2 10010  45.0000  24.0000 0000000   0.0000 204.0000 14.51731151    15
CTC1_L_00323003-04
1 10011U 24975IO  26075.70033565  .00000000  00000+0  00000-0 0  9998
2 10011  45.0000  24.0000 0000000   0.0000 294.0000 14.51731151    15
CTC1_L_00323004-01
1 10012U 23180HP  26075.70033565  .00000000  00000+0  00000-0 0  9996
2 10012  45.0000  36.0000 0000000   0.0000  36.0000 14.51731151    13
CTC1_L_00323004-02
1 10013U 25606MA  26075.70033565  .00000000  00000+0  00000-0 0  9992
2 10013  45.0000  36.0000 0000000   0.0000 126.0000 14.51731151    14
CTC1_L_00323004-03
1 10014U 22981NJ  26075.70033565  .00000000  00000+0  00000-0 0  9996
2 10014  45.0000  36.0000 0000000   0.0000 216.0000 14.51731151    15
CTC1_L_00323004-04
1 10015U 25689ZW  26075.70033565  .00000000  00000+0  00000-0 0  9995
2 10015  45.0000  36.0000 0000000   0.0000 306.0000 14.51731151    16
CTC1_L_00323005-01
1 10016U 25217ZM  26075.70033565  .00000000  00000+0  00000-0 0  9993
2 10016  45.0000  48.0000 0000000   0.0000  48.0000 14.51731151    13
CTC1_L_00323005-02
1 10017U 25155NK  26075.70033565  .00000000  00000+0  00000-0 0  9995
2 10017  45.0000  48.0000 0000000   0.0000 138.0000 14.51731151    14
CTC1_L_00323005-03
1 10018U 24822AV  26075.70033565  .00000000  00000+0  00000-0 0  9996
2 10018  45.0000  48.0000 0000000   0.0000 228.0000 14.51731151    15
CTC1_L_00323005-04
1 10019U 22632NO  26075.70033565  .00000000  00000+0  00000-0 0  9994
2 10019  45.0000  48.0000 0000000   0.0000 318.0000 14.51731151    16
CTC1_L_00323006-01
1 10020U 22901FI  26075.70033565  .00000000  00000+0  00000-0 0  9995
2 10020  45.0000  60.0000 0000000   0.0000  60.0000 14.51731151    16
CTC1_L_00323006-02
1 10021U 25007TG  26075.70033565  .00000000  00000+0  00000-0 0  9996
2 10021  45.0000  60.0000 0000000   0.0000 150.0000 14.51731151    17
CTC1_L_00323006-03
1 10022U 22276DE  26075.70033565  .00000000  00000+0  00000-0 0  9992
2 10022  45.0000  60.0000 0000000   0.0000 240.0000 14.51731151    18
CTC1_L_00323006-04
1 10023U 22771VH  26075.70033565  .00000000  00000+0  00000-0 0  9993
2 10023  45.0000  60.0000 0000000   0.0000 330.0000 14.51731151    19
CTC1_L_00323007-01
1 10024U 23537FP  26075.70033565  .00000000  00000+0  00000-0 0  9995
2 10024  45.0000  72.0000 0000000   0.0000  72.0000 14.51731151    16
CTC1_L_00323007-02
1 10025U 25005KS  26075.70033565  .00000000  00000+0  00000-0 0  9998
2 10025  45.0000  72.0000 0000000   0.0000 162.0000 14.51731151    17
CTC1_L_00323007-03
1 10026U 24357FK  26075.70033565  .00000000  00000+0  00000-0 0  9998
2 10026  45.0000  72.0000 0000000   0.0000 252.0000 14.51731151    18
CTC1_L_00323007-04
1 10027U 26200NS  26075.70033565  .00000000  00000+0  00000-0 0  9998
2 10027  45.0000  72.0000 0000000   0.0000 342.0000 14.51731151    19
CTC1_L_00323008-01
1 10028U 22157SN  26075.70033565  .00000000  00000+0  00000-0 0  9996
2 10028  45.0000  84.0000 0000000   0.0000  84.0000 14.51731151    16
CTC1_L_00323008-02
1 10029U 25133QI  26075.70033565  .00000000  00000+0  00000-0 0  9994
2 10029  45.0000  84.0000 0000000   0.0000 174.0000 14.51731151    17
CTC1_L_00323008-03
1 10030U 25628XN  26075.70033565  .00000000  00000+0  00000-0 0  9995
2 10030  45.0000  84.0000 0000000   0.0000 264.0000 14.51731151    19
CTC1_L_00323008-04
1 10031U 22250LM  26075.70033565  .00000000  00000+0  00000-0 0  9994
2 10031  45.0000  84.0000 0000000   0.0000 354.0000 14.51731151    10
CTC1_L_00323009-01
1 10032U 25218FK  26075.70033565  .00000000  00000+0  00000-0 0  9992
2 10032  45.0000  96.0000 0000000   0.0000  96.0000 14.51731151    17
CTC1_L_00323009-02
1 10033U 24846LL  26075.70033565  .00000000  00000+0  00000-0 0  9999
2 10033  45.0000  96.0000 0000000   0.0000 186.0000 14.51731151    18
CTC1_L_00323009-03
1 10034U 26881HF  26075.70033565  .00000000  00000+0  00000-0 0  9991
2 10034  45.0000  96.0000 0000000   0.0000 276.0000 14.51731151    19
CTC1_L_00323009-04
1 10035U 24365MV  26075.70033565  .00000000  00000+0  00000-0 0  9997
2 10035  45.0000  96.0000 0000000   0.0000   6.0000 14.51731151    11
CTC1_L_00323010-01
1 10036U 24431LG  26075.70033565  .00000000  00000+0  00000-0 0  9992
2 10036  45.0000 108.0000 0000000   0.0000 108.0000 14.51731151    19
CTC1_L_00323010-02
1 10037U 22920ZS  26075.70033565  .00000000  00000+0  00000-0 0  9994
2 10037  45.0000 108.0000 0000000   0.0000 198.0000 14.51731151    19
CTC1_L_00323010-03
1 10038U 25891CM  26075.70033565  .00000000  00000+0  00000-0 0  9995
2 10038  45.0000 108.0000 0000000   0.0000 288.0000 14.51731151    10
CTC1_L_00323010-04
1 10039U 23528XK  26075.70033565  .00000000  00000+0  00000-0 0  9991
2 10039  45.0000 108.0000 0000000   0.0000  18.0000 14.51731151    12
CTC1_L_00323011-01
1 10040U 25227ZV  26075.70033565  .00000000  00000+0  00000-0 0  9991
2 10040  45.0000 120.0000 0000000   0.0000 120.0000 14.51731151    12
CTC1_L_00323011-02
1 10041U 24739QC  26075.70033565  .00000000  00000+0  00000-0 0  9999
2 10041  45.0000 120.0000 0000000   0.0000 210.0000 14.51731151    13
CTC1_L_00323011-03
1 10042U 23230LY  26075.70033565  .00000000  00000+0  00000-0 0  9995
2 10042  45.0000 120.0000 0000000   0.0000 300.0000 14.51731151    14
CTC1_L_00323011-04
1 10043U 26176YG  26075.70033565  .00000000  00000+0  00000-0 0  9998
2 10043  45.0000 120.0000 0000000   0.0000  30.0000 14.51731151    15
CTC1_L_00323012-01
1 10044U 23130NV  26075.70033565  .00000000  00000+0  00000-0 0  9996
2 10044  45.0000 132.0000 0000000   0.0000 132.0000 14.51731151    12
CTC1_L_00323012-02
1 10045U 22974DH  26075.70033565  .00000000  00000+0  00000-0 0  9992
2 10045  45.0000 132.0000 0000000   0.0000 222.0000 14.51731151    13
CTC1_L_00323012-03
1 10046U 22993UE  26075.70033565  .00000000  00000+0  00000-0 0  9994
2 10046  45.0000 132.0000 0000000   0.0000 312.0000 14.51731151    14
CTC1_L_00323012-04
1 10047U 26705NQ  26075.70033565  .00000000  00000+0  00000-0 0  9990
2 10047  45.0000 132.0000 0000000   0.0000  42.0000 14.51731151    15
CTC1_L_00323013-01
1 10048U 25197MC  26075.70033565  .00000000  00000+0  00000-0 0  9995
2 10048  45.0000 144.0000 0000000   0.0000 144.0000 14.51731151    12
CTC1_L_00323013-02
1 10049U 23205NF  26075.70033565  .00000000  00000+0  00000-0 0  9994
2 10049  45.0000 144.0000 0000000   0.0000 234.0000 14.51731151    13
CTC1_L_00323013-03
1 10050U 26831VI  26075.70033565  .00000000  00000+0  00000-0 0  9994
2 10050  45.0000 144.0000 0000000   0.0000 324.0000 14.51731151    15
CTC1_L_00323013-04
1 10051U 23839LG  26075.70033565  .00000000  00000+0  00000-0 0  9990
2 10051  45.0000 144.0000 0000000   0.0000  54.0000 14.51731151    16
CTC1_L_00323014-01
1 10052U 25934JD  26075.70033565  .00000000  00000+0  00000-0 0  9999
2 10052  45.0000 156.0000 0000000   0.0000 156.0000 14.51731151    13
CTC1_L_00323014-02
1 10053U 23790PE  26075.70033565  .00000000  00000+0  00000-0 0  9998
2 10053  45.0000 156.0000 0000000   0.0000 246.0000 14.51731151    14
CTC1_L_00323014-03
1 10054U 24199TU  26075.70033565  .00000000  00000+0  00000-0 0  9993
2 10054  45.0000 156.0000 0000000   0.0000 336.0000 14.51731151    15
CTC1_L_00323014-04
1 10055U 22588UK  26075.70033565  .00000000  00000+0  00000-0 0  9994
2 10055  45.0000 156.0000 0000000   0.0000  66.0000 14.51731151    16
CTC1_L_00323015-01
1 10056U 25758MO  26075.70033565  .00000000  00000+0  00000-0 0  9997
2 10056  45.0000 168.0000 0000000   0.0000 168.0000 14.51731151    13
CTC1_L_00323015-02
1 10057U 26059ZT  26075.70033565  .00000000  00000+0  00000-0 0  9993
2 10057  45.0000 168.0000 0000000   0.0000 258.0000 14.51731151    14
CTC1_L_00323015-03
1 10058U 26216AV  26075.70033565  .00000000  00000+0  00000-0 0  9999
2 10058  45.0000 168.0000 0000000   0.0000 348.0000 14.51731151    15
CTC1_L_00323015-04
1 10059U 24524BY  26075.70033565  .00000000  00000+0  00000-0 0  9990
2 10059  45.0000 168.0000 0000000   0.0000  78.0000 14.51731151    16
CTC1_L_00323016-01
1 10060U 24302GB  26075.70033565  .00000000  00000+0  00000-0 0  9996
2 10060  45.0000 180.0000 0000000   0.0000 180.0000 14.51731151    16
CTC1_L_00323016-02
1 10061U 25734TU  26075.70033565  .00000000  00000+0  00000-0 0  9997
2 10061  45.0000 180.0000 0000000   0.0000 270.0000 14.51731151    17
